$$SOE
2460728.500000000, A.D. 2025-Feb-22 00:00:00.0000, 6.217910234396262E+07, -3.886071362327240E+08, -3.008909523343068E+07,
2460735.500000000, A.D. 2025-Mar-01 00:00:00.0000, 7.313789708862361E+07, -3.872079456302149E+08, -3.322943975963947E+07,
2460742.500000000, A.D. 2025-Mar-08 00:00:00.0000, 8.403929829064208E+07, -3.855048841299229E+08, -3.634370371734735E+07,
2460749.500000000, A.D. 2025-Mar-15 00:00:00.0000, 9.487513996893682E+07, -3.835010595475608E+08, -3.942961010564478E+07,
2460756.500000000, A.D. 2025-Mar-22 00:00:00.0000, 1.056374140541684E+08, -3.811998273333661E+08, -4.248493562175724E+07,
2460763.500000000, A.D. 2025-Mar-29 00:00:00.0000, 1.163182767817971E+08, -3.786047824823930E+08, -4.550751252644134E+07,
2460770.500000000, A.D. 2025-Apr-05 00:00:00.0000, 1.269100561811664E+08, -3.757197503871055E+08, -4.849523041212063E+07,
2460777.500000000, A.D. 2025-Apr-12 00:00:00.0000, 1.374052587390241E+08, -3.725487765706598E+08, -5.144603769150265E+07,
2460784.500000000, A.D. 2025-Apr-19 00:00:00.0000, 1.477965750570595E+08, -3.690961162222122E+08, -5.435794286510256E+07,
2460791.500000000, A.D. 2025-Apr-26 00:00:00.0000, 1.580768847844310E+08, -3.653662237753706E+08, -5.722901561342911E+07,
2460798.500000000, A.D. 2025-May-03 00:00:00.0000, 1.682392609503832E+08, -3.613637425468777E+08, -6.005738772752462E+07,
2460805.500000000, A.D. 2025-May-10 00:00:00.0000, 1.782769737387795E+08, -3.570934944608836E+08, -6.284125388506755E+07,
2460812.500000000, A.D. 2025-May-17 00:00:00.0000, 1.881834937565611E+08, -3.525604699315407E+08, -6.557887228446770E+07,
2460819.500000000, A.D. 2025-May-24 00:00:00.0000, 1.979524949874067E+08, -3.477698179886194E+08, -6.826856516355699E+07,
2460826.500000000, A.D. 2025-May-31 00:00:00.0000, 2.075778578665785E+08, -3.427268363645057E+08, -7.090871922235239E+07,
2460833.500000000, A.D. 2025-Jun-07 00:00:00.0000, 2.170536720936492E+08, -3.374369603647851E+08, -7.349778582104771E+07,
2460840.500000000, A.D. 2025-Jun-14 00:00:00.0000, 2.263742368358408E+08, -3.319057512112633E+08, -7.603428079650839E+07,
2460847.500000000, A.D. 2025-Jun-21 00:00:00.0000, 2.355340595583118E+08, -3.261388871452986E+08, -7.851678428144915E+07,
2460854.500000000, A.D. 2025-Jun-28 00:00:00.0000, 2.445278566338414E+08, -3.201421555425109E+08, -8.094394067529458E+07,
2460861.500000000, A.D. 2025-Jul-05 00:00:00.0000, 2.533505542416723E+08, -3.139214439006708E+08, -8.331445845927027E+07,
2460868.500000000, A.D. 2025-Jul-12 00:00:00.0000, 2.619972883896419E+08, -3.074827305247352E+08, -8.562710982079202E+07,
2460875.500000000, A.D. 2025-Jul-19 00:00:00.0000, 2.704634042721220E+08, -3.008320755006062E+08, -8.788073015964565E+07,
2460882.500000000, A.D. 2025-Jul-26 00:00:00.0000, 2.787444551950841E+08, -2.939756120275389E+08, -9.007421750712022E+07,
2460889.500000000, A.D. 2025-Aug-02 00:00:00.0000, 2.868362011542515E+08, -2.869195380976086E+08, -9.220653186874646E+07,
2460896.500000000, A.D. 2025-Aug-09 00:00:00.0000, 2.947346071099217E+08, -2.796701085438476E+08, -9.427669449966629E+07,
2460903.500000000, A.D. 2025-Aug-16 00:00:00.0000, 3.024358410555826E+08, -2.722336275242580E+08, -9.628378712998398E+07,
2460910.500000000, A.D. 2025-Aug-23 00:00:00.0000, 3.099362721942633E+08, -2.646164414269237E+08, -9.822695117070660E+07,
2460917.500000000, A.D. 2025-Aug-30 00:00:00.0000, 3.172324695746307E+08, -2.568249314837969E+08, -1.001053868780125E+08,
2460924.500000000, A.D. 2025-Sep-06 00:00:00.0000, 3.243211997915924E+08, -2.488655050958430E+08, -1.019183522707050E+08,
2460931.500000000, A.D. 2025-Sep-13 00:00:00.0000, 3.311994221004863E+08, -2.407445883544185E+08, -1.036651618566460E+08,
2460938.500000000, A.D. 2025-Sep-20 00:00:00.0000, 3.378642842358398E+08, -2.324686214018745E+08, -1.053451856078705E+08,
2460945.500000000, A.D. 2025-Sep-27 00:00:00.0000, 3.443131200117666E+08, -2.240440535172347E+08, -1.069578480323774E+08,
2460952.500000000, A.D. 2025-Oct-04 00:00:00.0000, 3.505434467057090E+08, -2.154773373855764E+08, -1.085026271189286E+08,
2460959.500000000, A.D. 2025-Oct-11 00:00:00.0000, 3.565529618687879E+08, -2.067749234912137E+08, -1.099790532026038E+08,
2460966.500000000, A.D. 2025-Oct-18 00:00:00.0000, 3.623395398621529E+08, -1.979432549048854E+08, -1.113867078040447E+08,
2460973.500000000, A.D. 2025-Oct-25 00:00:00.0000, 3.679012282738084E+08, -1.889887624487150E+08, -1.127252224585083E+08,
2460980.500000000, A.D. 2025-Nov-01 00:00:00.0000, 3.732362442695501E+08, -1.799178602175541E+08, -1.139942775411263E+08,
2460987.500000000, A.D. 2025-Nov-08 00:00:00.0000, 3.783429709257179E+08, -1.707369414817687E+08, -1.151936010979007E+08,
2460994.500000000, A.D. 2025-Nov-15 00:00:00.0000, 3.832199537033108E+08, -1.614523750229238E+08, -1.163229677040632E+08,
2461001.500000000, A.D. 2025-Nov-22 00:00:00.0000, 3.878658974769334E+08, -1.520705016737097E+08, -1.173821973715254E+08,
2461008.500000000, A.D. 2025-Nov-29 00:00:00.0000, 3.922796639772961E+08, -1.425976299179956E+08, -1.183711544018272E+08,
2461015.500000000, A.D. 2025-Dec-06 00:00:00.0000, 3.964602673824669E+08, -1.330400306798538E+08, -1.192897459908097E+08,
2461022.500000000, A.D. 2025-Dec-13 00:00:00.0000, 4.004068685008953E+08, -1.234039346654525E+08, -1.201379209032218E+08,
2461029.500000000, A.D. 2025-Dec-20 00:00:00.0000, 4.041187710461891E+08, -1.136955312257938E+08, -1.209156684556379E+08,
2461036.500000000, A.D. 2025-Dec-27 00:00:00.0000, 4.075954189377267E+08, -1.039209661392706E+08, -1.216230174992995E+08,
2461043.500000000, A.D. 2026-Jan-03 00:00:00.0000, 4.108363931761650E+08, -9.408633892060794E+07, -1.222600353215564E+08,
2461050.500000000, A.D. 2026-Jan-10 00:00:00.0000, 4.138414084110050E+08, -8.419770032625991E+07, -1.228268265334400E+08,
2461057.500000000, A.D. 2026-Jan-17 00:00:00.0000, 4.166103094394032E+08, -7.426105013881917E+07, -1.233235319739120E+08,
2461064.500000000, A.D. 2026-Jan-24 00:00:00.0000, 4.191430677202917E+08, -6.428233519877306E+07, -1.237503276376812E+08,
2461071.500000000, A.D. 2026-Jan-31 00:00:00.0000, 4.214397779329076E+08, -5.426744768233126E+07, -1.241074236308416E+08,
2461078.500000000, A.D. 2026-Feb-07 00:00:00.0000, 4.235006546460790E+08, -4.422222367467248E+07, -1.243950631659035E+08,
2461085.500000000, A.D. 2026-Feb-14 00:00:00.0000, 4.253260293544087E+08, -3.415244204652771E+07, -1.246135216211587E+08,
2461092.500000000, A.D. 2026-Feb-21 00:00:00.0000, 4.269163482698295E+08, -2.406382304896845E+07, -1.247631056520842E+08,
2461099.500000000, A.D. 2026-Feb-28 00:00:00.0000, 4.282721697851080E+08, -1.396202546307436E+07, -1.248441521603487E+08,
2461106.500000000, A.D. 2026-Mar-07 00:00:00.0000, 4.293941595545469E+08, -3.852644245503910E+06, -1.248570270916309E+08,
2461113.500000000, A.D. 2026-Mar-14 00:00:00.0000, 4.302830859699493E+08, 6.258789004685447E+06, -1.248021245079317E+08,
2461120.500000000, A.D. 2026-Mar-21 00:00:00.0000, 4.309398178158615E+08, 1.636680566437459E+07, -1.246798658611130E+08,
2461127.500000000, A.D. 2026-Mar-28 00:00:00.0000, 4.313653220975923E+08, 2.646600082663878E+07, -1.244906992002234E+08,
2461134.500000000, A.D. 2026-Apr-04 00:00:00.0000, 4.315606614414837E+08, 3.655103420363946E+07, -1.242350983372672E+08,
2461141.500000000, A.D. 2026-Apr-11 00:00:00.0000, 4.315269913433338E+08, 4.661663083766423E+07, -1.239135620264245E+08,
2461148.500000000, A.D. 2026-Apr-18 00:00:00.0000, 4.312655574251645E+08, 5.665758161903790E+07, -1.235266131717263E+08,
2461155.500000000, A.D. 2026-Apr-25 00:00:00.0000, 4.307776927465525E+08, 6.666874363124862E+07, -1.230747980657158E+08,
2461162.500000000, A.D. 2026-May-02 00:00:00.0000, 4.300648152015277E+08, 7.664504029944171E+07, -1.225586856638285E+08,
2461169.500000000, A.D. 2026-May-09 00:00:00.0000, 4.291284251259953E+08, 8.658146128159116E+07, -1.219788669109195E+08,
2461176.500000000, A.D. 2026-May-16 00:00:00.0000, 4.279701034934232E+08, 9.647306224553895E+07, -1.213359541427322E+08,
2461183.500000000, A.D. 2026-May-23 00:00:00.0000, 4.265915107488408E+08, 1.063149655592411E+08, -1.206305804823391E+08,
2461190.500000000, A.D. 2026-May-30 00:00:00.0000, 4.249943842015807E+08, 1.161023622205092E+08, -1.198633990140957E+08,
2461197.500000000, A.D. 2026-Jun-06 00:00:00.0000, 4.231805336612906E+08, 1.258305117585230E+08, -1.190350819743618E+08,
2461204.500000000, A.D. 2026-Jun-13 00:00:00.0000, 4.211518389831517E+08, 1.354947403092004E+08, -1.181463202790506E+08,
2461211.500000000, A.D. 2026-Jun-20 00:00:00.0000, 4.189102490187900E+08, 1.450904397944748E+08, -1.171978231019967E+08,
2461218.500000000, A.D. 2026-Jun-27 00:00:00.0000, 4.164577802729809E+08, 1.546130678704293E+08, -1.161903173757461E+08,
2461225.500000000, A.D. 2026-Jul-04 00:00:00.0000, 4.137965152651581E+08, 1.640581478738252E+08, -1.151245472780387E+08,
2461232.500000000, A.D. 2026-Jul-11 00:00:00.0000, 4.109286008486528E+08, 1.734212686391383E+08, -1.140012737379694E+08,
2461239.500000000, A.D. 2026-Jul-18 00:00:00.0000, 4.078562465791918E+08, 1.826980842156704E+08, -1.128212739680718E+08,
2461246.500000000, A.D. 2026-Jul-25 00:00:00.0000, 4.045817231558144E+08, 1.918843134911828E+08, -1.115853410241307E+08,
2461253.500000000, A.D. 2026-Aug-01 00:00:00.0000, 4.011073609810881E+08, 2.009757396776034E+08, -1.102942834008652E+08,
2461260.500000000, A.D. 2026-Aug-08 00:00:00.0000, 3.974355490545025E+08, 2.099682096263715E+08, -1.089489246859778E+08,
2461267.500000000, A.D. 2026-Aug-15 00:00:00.0000, 3.935687346128209E+08, 2.188576334263942E+08, -1.075501032734834E+08,
2461274.500000000, A.D. 2026-Aug-22 00:00:00.0000, 3.895094227533387E+08, 2.276399855080799E+08, -1.060986719655846E+08,
2461281.500000000, A.D. 2026-Aug-29 00:00:00.0000, 3.852601737481190E+08, 2.363113058851943E+08, -1.045954973644839E+08,
2461288.500000000, A.D. 2026-Sep-05 00:00:00.0000, 3.808236001834023E+08, 2.448676986709825E+08, -1.030414594847945E+08,
2461295.500000000, A.D. 2026-Sep-12 00:00:00.0000, 3.762023663785179E+08, 2.533053303658880E+08, -1.014374516075427E+08,
$$EOE